ONEWEB-0620             
1 55161U 23004X   24156.77062485 -.00000137  00000+0 -42347-3 0  9999
2 55161  87.8963 168.8221 0001808  76.9473 283.1856 13.11416693 68521
ONEWEB-0621             
1 55162U 23004Y   24156.79777859  .00000511  00000+0  14046-2 0  9998
2 55162  87.8957 168.7864 0001862  99.0659 261.0680 13.11417463 68503
ONEWEB-0622             
1 55163U 23004Z   24156.95545501  .00000459  00000+0  12604-2 0  9993
2 55163  87.8959 168.7709 0001168  73.9369 286.1888 13.11416718 68513
ONEWEB-0623             
1 55164U 23004AA  24156.97021541  .00000046  00000+0  84087-4 0  9997
2 55164  87.9165 153.6327 0001188  89.0951 271.0317 13.17651074 69849
ONEWEB-0624             
1 55165U 23004AB  24156.64545180  .00000547  00000+0  14834-2 0  9999
2 55165  87.8936 138.4909 0001755  86.6377 273.4952 13.12561665 70650
ONEWEB-0625             
1 55166U 23004AC  24156.95916273  .00000040  00000+0  68618-4 0  9998
2 55166  87.9164 153.6335 0002202  96.6919 263.4463 13.17647748 69834
ONEWEB-0626             
1 55167U 23004AD  24156.72186104 -.00000053  00000+0 -16895-3 0  9991
2 55167  87.9162 153.6814 0002174  73.0269 287.1101 13.17647788 69803
ONEWEB-0627             
1 55168U 23004AE  24156.71077586  .00000064  00000+0  13079-3 0  9995
2 55168  87.9163 153.6848 0001313  76.4767 283.6510 13.17647954 69806
